ORBCOMM FM115 [+]       
1 41186U 15081H   23269.07146676  .00001280  00000+0  30018-3 0  9999
2 41186  46.9987 149.9262 0000523  11.5212 348.5686 14.59920641415629
ORBCOMM FM108 [+]       
1 41187U 15081J   23268.96281809  .00001791  00000+0  44154-3 0  9998
2 41187  47.0044 197.6379 0003109 307.6584  52.4018 14.55920535414895
ORBCOMM FM117 [+]       
1 41188U 15081K   23269.20253841  .00001721  00000+0  42572-3 0  9997
2 41188  47.0005 195.4746 0003755 316.8584  43.2006 14.55907677415029
ORBCOMM FM116 [+]       
1 41189U 15081L   23269.05531106  .00001282  00000+0  32681-3 0  9996
2 41189  47.0018 285.9767 0001583  10.4554 349.6363 14.55911251413764
